OBJECT_NAME,OBJECT_ID,EPOCH,MEAN_MOTION,ECCENTRICITY,INCLINATION,RA_OF_ASC_NODE,ARG_OF_PERICENTER,MEAN_ANOMALY,EPHEMERIS_TYPE,CLASSIFICATION_TYPE,NORAD_CAT_ID,ELEMENT_SET_NO,REV_AT_EPOCH,BSTAR,MEAN_MOTION_DOT,MEAN_MOTION_DDOT
STARLINK-5124,2022-125AZ,2024-11-28T20:12:55.083744,15.08839446,.000133,53.2174,135.5350,87.0569,273.0575,0,U,54011,999,11927,.96942E-4,.1255E-4,0
STARLINK-5126,2022-125BA,2024-11-29T03:32:42.388512,15.08832286,.0001186,53.2166,133.8905,97.0402,263.0726,0,U,54012,999,11937,.42538E-3,.6487E-4,0
STARLINK-5098,2022-125BB,2024-11-29T03:43:19.657632,15.08818890,.0001555,53.2141,133.9353,75.7133,284.4032,0,U,54013,999,11937,.3389E-3,.5107E-4,0
STARLINK-5055,2022-125BD,2024-11-28T19:41:05.076096,15.08834120,.0001449,53.2166,135.3971,85.9487,274.1671,0,U,54015,999,11927,.48168E-4,.479E-5,0
CENTISPACE-1 S5,2022-126A,2024-11-29T04:48:49.864896,14.60928081,.0010643,54.9991,310.7764,232.7030,127.2994,0,U,54020,999,11439,.86463E-3,.4083E-4,0
CENTISPACE-1 S6,2022-126B,2024-11-29T04:43:17.906592,14.60693584,.0012459,54.9992,310.7630,235.6437,124.3378,0,U,54021,999,11438,.68102E-3,.316E-4,0
OTB-3-GAZELLE,2022-127A,2024-11-28T23:06:54.438912,14.42327591,.0014468,98.3551,324.7461,93.7651,266.5193,0,U,54023,999,11287,.19629E-3,.606E-5,0
GALAXY 33 (G-33),2022-128A,2024-11-28T23:44:06.470592,1.00271658,.000155,0.0154,319.2213,276.5605,55.6301,0,U,54026,999,806,0,.107E-5,0
GALAXY 34 (G-34),2022-128B,2024-11-28T16:17:42.789408,1.00269464,.0001497,0.0212,322.8144,278.4551,302.2829,0,U,54027,999,824,0,.86E-6,0
ASO-S,2022-129A,2024-11-29T03:24:02.663136,14.51636803,.0015105,98.2712,336.6289,33.3101,326.9042,0,U,54029,999,11343,.20099E-3,.762E-5,0
COSMOS 2559 [GLONASS-K],2022-130A,2024-11-28T14:13:56.516736,2.13101438,.0008203,64.5755,334.4556,233.4454,126.5100,0,U,54031,999,1663,0,-.44E-6,0
ANGOSAT 2,2022-131A,2024-11-28T20:54:42.567264,1.00272518,.000165,0.0448,114.7032,201.5489,88.6949,0,U,54033,999,779,0,.163E-5,0
HJ-2E,2022-132A,2024-11-29T04:01:13.797984,15.23670734,.0016865,97.3837,337.8972,128.6759,231.5990,0,U,54035,999,11847,.10401E-2,.25036E-3,0
YAOGAN-36 02A,2022-133A,2024-11-28T17:43:13.280160,15.23207995,.0035938,35.0026,75.7283,142.4908,217.8323,0,U,54042,999,11849,.13698E-2,.33925E-3,0
YAOGAN-36 02B,2022-133B,2024-11-28T17:41:58.863840,15.23092796,.0014377,34.9937,82.3032,319.8924,40.0729,0,U,54043,999,11842,.11402E-2,.27687E-3,0
YAOGAN-36 02C,2022-133D,2024-11-28T17:37:27.617088,15.22940764,.0010198,34.9936,82.2594,91.1370,269.0513,0,U,54045,999,11842,.14688E-2,.35503E-3,0
EUTELSAT HOTBIRD 13F,2022-134A,2024-11-28T21:02:42.467424,1.00271202,.0002188,0.0626,291.4456,71.3349,34.1731,0,U,54048,999,776,0,.115E-5,0
STARLINK-5195,2022-136A,2024-11-29T02:37:08.277312,15.08828038,.0001169,53.2189,274.4324,96.3535,263.7590,0,U,54051,999,11703,-.46742E-5,-.362E-5,0
STARLINK-5189,2022-136B,2024-11-28T11:09:41.510592,15.08841299,.0001579,53.2171,236.8921,97.6032,262.5139,0,U,54052,999,11702,.30336E-3,.4543E-4,0
STARLINK-5176,2022-136C,2024-11-28T20:10:16.408416,15.08842953,.0001683,53.2143,275.6019,75.3227,284.7951,0,U,54053,999,11651,.14913E-3,.2086E-4,0
STARLINK-5163,2022-136D,2024-11-29T02:21:11.574432,15.08850390,.0003227,53.2172,274.3689,86.5283,273.6078,0,U,54054,999,11703,.22527E-3,.33E-4,0
STARLINK-5158,2022-136E,2024-11-29T02:26:31.447968,15.08824230,.0001239,53.2165,274.3891,87.4143,272.6991,0,U,54055,999,11703,.36653E-5,-.23E-5,0
STARLINK-5226,2022-136F,2024-11-28T06:02:17.140992,15.08843771,.0001167,53.2159,277.6242,101.9223,258.1900,0,U,54056,999,11643,.11726E-3,.1579E-4,0
STARLINK-5167,2022-136H,2024-11-29T00:29:54.769920,15.08828907,.0002183,53.2185,274.5950,89.7920,270.3322,0,U,54058,999,11702,.25961E-4,.125E-5,0
STARLINK-5173,2022-136J,2024-11-29T00:35:12.459264,15.08827924,.0001665,53.2171,274.6173,88.2150,271.9032,0,U,54059,999,11702,-.78842E-4,-.1542E-4,0
STARLINK-5169,2022-136K,2024-11-28T01:20:07.188000,15.08870577,.0001042,53.2190,248.5766,57.7711,302.3382,0,U,54060,999,11682,-.49408E-3,-.8149E-4,0
STARLINK-5209,2022-136L,2024-11-28T19:52:33.994272,15.10731218,.0002026,53.2170,239.8312,129.7830,230.3342,0,U,54061,999,11701,.21406E-2,.35776E-3,0
STARLINK-5170,2022-136M,2024-11-29T00:24:36.113760,15.08823983,.0001792,53.2176,274.5730,83.7182,276.4014,0,U,54062,999,11702,.19127E-3,.2756E-4,0
STARLINK-5225,2022-136N,2024-11-29T03:30:04.248864,15.08828581,.0001639,53.2196,273.9629,114.6136,245.5027,0,U,54063,999,11704,.62399E-4,.705E-5,0
STARLINK-5172,2022-136P,2024-11-29T02:19:14.358144,15.08830585,.0001554,53.2173,229.4250,80.0145,280.1023,0,U,54064,999,11766,.79579E-4,.978E-5,0
STARLINK-5187,2022-136Q,2024-11-28T03:28:40.249920,15.08835793,.0001004,53.2188,278.3747,105.0669,255.0434,0,U,54065,999,11641,.1662E-4,-.23E-6,0
STARLINK-5151,2022-136R,2024-11-28T21:03:13.607712,15.08823172,.0001478,53.2187,275.1245,91.1869,268.9293,0,U,54066,999,11652,-.26132E-4,-.704E-5,0
STARLINK-5174,2022-136S,2024-11-28T23:58:04.521216,15.08831483,.0000987,53.2181,274.4667,77.6882,282.4221,0,U,54067,999,11702,.2106E-6,-.284E-5,0
STARLINK-5222,2022-136T,2024-11-29T03:14:08.866176,15.08829732,.0001322,53.2184,273.8945,84.7682,275.3461,0,U,54068,999,11704,.10305E-3,.1352E-4,0
STARLINK-5181,2022-136V,2024-11-29T02:58:13.525824,15.08838443,.0001477,53.2180,273.8238,84.7074,275.4087,0,U,54070,999,11704,.11751E-3,.1583E-4,0
STARLINK-5168,2022-136W,2024-11-28T03:02:07.795968,15.08843880,.0001266,53.2160,278.2587,95.4219,264.6917,0,U,54071,999,11641,-.53057E-4,-.1132E-4,0
STARLINK-5144,2022-136X,2024-11-28T22:00:00.999936,15.57205804,.0001246,53.2125,271.1631,109.9304,240.8056,0,U,54072,999,581,.14834E-1,.1205957E-1,0
STARLINK-5146,2022-136Y,2024-11-29T02:50:56.183712,15.08820192,.0001694,53.2182,268.8097,109.3388,250.7788,0,U,54073,999,11711,.34021E-3,.5128E-4,0
STARLINK-5192,2022-136Z,2024-11-28T06:07:35.593248,15.08852088,.0001651,53.2204,277.6396,93.8432,266.2749,0,U,54074,999,11643,.54306E-4,.577E-5,0
STARLINK-5212,2022-136AA,2024-11-29T02:45:37.605312,15.08849475,.0001239,53.2178,268.7795,97.7121,262.4012,0,U,54075,999,11711,-.36376E-4,-.867E-5,0
STARLINK-5201,2022-136AB,2024-11-28T13:50:06.642528,15.08847293,.0001554,53.2137,276.7834,108.2895,251.8266,0,U,54076,999,11695,-.68325E-4,-.1375E-4,0
STARLINK-5171,2022-136AC,2024-11-29T01:13:08.253408,15.12611613,.000104,53.2173,251.3506,89.7890,270.3223,0,U,54077,999,11735,.1134E-3,.1705E-4,0
STARLINK-5138,2022-136AD,2024-11-29T01:52:01.443936,15.08847418,.0001149,53.2172,254.2822,80.8274,279.2848,0,U,54078,999,11731,.17918E-3,.2566E-4,0
STARLINK-5175,2022-136AE,2024-11-28T20:11:36.301632,15.08840338,.0001331,53.2169,265.6166,92.3509,267.7635,0,U,54079,999,11665,.17171E-3,.2446E-4,0
STARLINK-5160,2022-136AF,2024-11-28T13:41:26.575008,15.08842357,.0001708,53.2158,271.7646,112.7472,247.3701,0,U,54080,999,11654,.26024E-3,.3856E-4,0
STARLINK-5165,2022-136AG,2024-11-28T19:34:27.992928,15.08854561,.0001352,53.2180,265.4599,88.2431,271.8716,0,U,54081,999,11665,-.21635E-3,-.3731E-4,0
STARLINK-5210,2022-136AH,2024-11-29T02:27:49.174272,15.08860610,.0001321,53.2175,264.4045,91.6062,268.5081,0,U,54082,999,11717,.3097E-3,.4647E-4,0
STARLINK-5178,2022-136AJ,2024-11-29T02:11:54.817152,15.08850700,.0001849,53.2181,264.3351,95.3352,264.7851,0,U,54083,999,11717,.298E-4,.186E-5,0
STARLINK-5183,2022-136AK,2024-11-28T20:00:59.443776,15.08844236,.0001062,53.2156,265.5678,97.6999,262.4113,0,U,54084,999,11665,.22632E-3,.3316E-4,0
STARLINK-5166,2022-136AL,2024-11-28T13:24:54.465408,15.08843871,.000182,53.2175,266.6933,96.2128,263.9072,0,U,54085,999,11708,-.25281E-4,-.691E-5,0
STARLINK-5211,2022-136AM,2024-11-28T19:49:44.262336,15.08821728,.0001204,53.2177,250.5639,93.3685,266.7445,0,U,54086,999,11686,-.28189E-4,-.736E-5,0
STARLINK-5184,2022-136AN,2024-11-29T02:48:56.596608,15.08840561,.0001799,53.2195,263.7926,72.5616,287.5573,0,U,54087,999,11717,.1731E-3,.2468E-4,0
STARLINK-5153,2022-136AP,2024-11-28T19:55:40.693440,15.08840621,.0001856,53.2198,265.5477,105.2619,254.8578,0,U,54088,999,11665,.15795E-3,.2227E-4,0
STARLINK-5143,2022-136AQ,2024-11-29T00:10:00.268320,15.08843968,.0001489,53.2174,264.5232,86.8337,273.2825,0,U,54089,999,11715,.76386E-4,.928E-5,0
STARLINK-5177,2022-136AR,2024-11-29T01:50:40.841376,15.08854979,.0001387,53.2184,264.2436,88.9612,271.1539,0,U,54090,999,11716,.2101E-3,.3059E-4,0
STARLINK-5221,2022-136AS,2024-11-29T02:43:38.423424,15.08834052,.0001582,53.2183,263.7753,97.9859,262.1313,0,U,54091,999,11717,.12218E-3,.1657E-4,0
STARLINK-5190,2022-136AT,2024-11-28T10:25:57.546912,15.33178248,.0002521,53.1918,234.8747,351.1494,8.9463,0,U,54092,999,11705,.88043E-3,.28356E-3,0
STARLINK-5213,2022-136AU,2024-11-29T01:29:28.921056,15.08833459,.000169,53.2188,264.1508,87.6239,272.4947,0,U,54093,999,11716,.70487E-4,.834E-5,0
STARLINK-5219,2022-136AV,2024-11-29T00:04:42.455424,15.08836945,.0001966,53.2171,264.4952,73.3858,286.7350,0,U,54094,999,11715,.20547E-3,.2983E-4,0
STARLINK-5193,2022-136AW,2024-11-29T01:18:51.884352,15.08836187,.0002021,53.2206,264.1106,88.6083,271.5141,0,U,54095,999,11716,.54991E-4,.587E-5,0
STARLINK-5188,2022-136AX,2024-11-28T23:59:24.277056,15.08829336,.0001576,53.2177,264.4745,80.7159,279.4012,0,U,54096,999,11715,.15558E-4,-.4E-6,0
STARLINK-5197,2022-136AY,2024-11-29T00:10:41.086272,15.08837377,.0001668,53.2167,239.5728,90.6696,269.4487,0,U,54097,999,11750,.53082E-3,.8169E-4,0
STARLINK-5217,2022-136AZ,2024-11-29T02:50:26.911392,15.08837097,.0002485,53.2181,264.4825,85.5257,274.6019,0,U,54098,999,11716,.90823E-4,.1157E-4,0
STARLINK-5198,2022-136BA,2024-11-29T02:38:19.969440,15.08838072,.0001083,53.2166,263.7439,84.0482,276.0633,0,U,54099,999,11717,.14049E-3,.1949E-4,0
STARLINK-5185,2022-136BB,2024-11-29T01:24:10.286496,15.08841096,.0001615,53.2182,264.1326,90.9186,269.1991,0,U,54100,999,11716,.14529E-3,.2025E-4,0
STARLINK-5204,2022-136BC,2024-11-28T19:03:20.941632,15.08843360,.0002105,53.2156,250.3595,105.6288,254.4937,0,U,54101,999,11686,.14456E-4,-.58E-6,0
